*******************************************************************************
Ephemeris / WWW_USER Mon Mar 24 07:38:58 2025 Pasadena, USA      / Horizons    
*******************************************************************************
Target body name: (2018 RY7)                      {source: JPL#20}
Center body name: Earth (399)                     {source: DE441}
Center-site name: Mauna Kea
*******************************************************************************
Start time      : A.D. 2018-Oct-04 04:17:00.0000 UT      
Stop  time      : A.D. 2018-Oct-04 16:04:00.0000 UT      
Step-size       : 1 minutes
*******************************************************************************
Target pole/equ : undefined
Target radii    : undefined                                                    
Center geodetic : 204.5278, 19.8260847, 4.21024   {E-lon(deg),Lat(deg),Alt(km)}
Center cylindric: 204.5278, 6006.35451, 2151.0229 {E-lon(deg),Dxy(km),Dz(km)}
Center pole/equ : ITRF93                          {East-longitude positive}
Center radii    : 6378.137, 6378.137, 6356.752 km {Equator_a, b, pole_c}       
Target primary  : Sun
Vis. interferer : MOON (R_eq= 1737.400) km        {source: DE441}
Rel. light bend : Sun                             {source: DE441}
Rel. lght bnd GM: 1.3271E+11 km^3/s^2                                          
Small-body perts: Yes                             {source: SB441-N16}
Atmos refraction: NO (AIRLESS)
RA format       : HMS
Time format     : CAL 
Calendar mode   : Mixed Julian/Gregorian
RTS-only print  : NO       
EOP file        : eop.250321.p250617                                           
EOP coverage    : DATA-BASED 1962-JAN-20 TO 2025-MAR-21. PREDICTS-> 2025-JUN-16
Units conversion: 1 au= 149597870.700 km, c= 299792.458 km/s, 1 day= 86400.0 s 
Table cut-offs 1: Elevation (-90.0deg=NO ),Airmass (>38.000=NO), Daylight (YES)
Table cut-offs 2: Solar elongation (  0.0,180.0=NO ),Local Hour Angle( 0.0=NO )
Table cut-offs 3: RA/DEC angular rate (     0.0=NO )                           
*******************************************************************************
Initial IAU76/J2000 heliocentric ecliptic osculating elements (au, days, deg.):
  EPOCH=  2458422.5 ! 2018-Oct-31.00 (TDB)         Residual RMS= .22459        
   EC= .1470549687381346   QR= .8667733479166969   TP= 2458516.8896767548      
   OM= 2.838668085760325   W=  136.9006026425241   IN= 13.35135890147074       
  Equivalent ICRF heliocentric cartesian coordinates (au, au/d):
   X= 8.791791513870114E-01  Y= 4.508422091141234E-01  Z= 3.244113040133835E-01
  VX=-1.085418916943652E-02 VY= 1.006005810562689E-02 VZ= 7.673980932675997E-03
Asteroid physical parameters (km, seconds, rotational period in hours):        
   GM= n.a.                RAD= n.a.               ROTPER= n.a.                
   H= 24.4                 G= .150                 B-V= n.a.                   
                           ALBEDO= n.a.            STYP= n.a.                  
*******************************************************************************
 Date__(UT)__HR:MN     R.A._________(ICRF)_________DEC
******************************************************
$$SOE
 2018-Oct-04 06:20     23 13 53.181057 +12 21 52.17083
 2018-Oct-04 06:21     23 13 52.836710 +12 21 55.43369
 2018-Oct-04 06:22     23 13 52.492304 +12 21 58.69624
 2018-Oct-04 06:23     23 13 52.147836 +12 22 01.95849
 2018-Oct-04 06:24     23 13 51.803310 +12 22 05.22044
 2018-Oct-04 06:25     23 13 51.458724 +12 22 08.48209
 2018-Oct-04 06:26     23 13 51.114079 +12 22 11.74342
 2018-Oct-04 06:27     23 13 50.769375 +12 22 15.00445
 2018-Oct-04 06:28     23 13 50.424613 +12 22 18.26518
 2018-Oct-04 06:29     23 13 50.079793 +12 22 21.52559
 2018-Oct-04 06:30     23 13 49.734916 +12 22 24.78569
 2018-Oct-04 06:31     23 13 49.389982 +12 22 28.04549
 2018-Oct-04 06:32     23 13 49.044991 +12 22 31.30497
 2018-Oct-04 06:33     23 13 48.699943 +12 22 34.56414
 2018-Oct-04 06:34     23 13 48.354840 +12 22 37.82300
 2018-Oct-04 06:35     23 13 48.009681 +12 22 41.08154
 2018-Oct-04 06:36     23 13 47.664467 +12 22 44.33977
 2018-Oct-04 06:37     23 13 47.319198 +12 22 47.59768
 2018-Oct-04 06:38     23 13 46.973875 +12 22 50.85528
 2018-Oct-04 06:39     23 13 46.628498 +12 22 54.11255
 2018-Oct-04 06:40     23 13 46.283067 +12 22 57.36952
 2018-Oct-04 06:41     23 13 45.937583 +12 23 00.62616
 2018-Oct-04 06:42     23 13 45.592045 +12 23 03.88248
 2018-Oct-04 06:43     23 13 45.246456 +12 23 07.13848
 2018-Oct-04 06:44     23 13 44.900814 +12 23 10.39416
 2018-Oct-04 06:45     23 13 44.555121 +12 23 13.64952
 2018-Oct-04 06:46     23 13 44.209377 +12 23 16.90455
 2018-Oct-04 06:47     23 13 43.863581 +12 23 20.15926
 2018-Oct-04 06:48     23 13 43.517735 +12 23 23.41365
 2018-Oct-04 06:49     23 13 43.171839 +12 23 26.66771
 2018-Oct-04 06:50     23 13 42.825893 +12 23 29.92145
 2018-Oct-04 06:51     23 13 42.479898 +12 23 33.17486
 2018-Oct-04 06:52     23 13 42.133854 +12 23 36.42794
 2018-Oct-04 06:53     23 13 41.787762 +12 23 39.68069
 2018-Oct-04 06:54     23 13 41.441621 +12 23 42.93311
 2018-Oct-04 06:55     23 13 41.095433 +12 23 46.18521
 2018-Oct-04 06:56     23 13 40.749197 +12 23 49.43697
 2018-Oct-04 06:57     23 13 40.402915 +12 23 52.68840
 2018-Oct-04 06:58     23 13 40.056586 +12 23 55.93950
 2018-Oct-04 06:59     23 13 39.710211 +12 23 59.19027
 2018-Oct-04 07:00     23 13 39.363790 +12 24 02.44070
 2018-Oct-04 07:01     23 13 39.017324 +12 24 05.69080
 2018-Oct-04 07:02     23 13 38.670813 +12 24 08.94056
 2018-Oct-04 07:03     23 13 38.324258 +12 24 12.18999
 2018-Oct-04 07:04     23 13 37.977659 +12 24 15.43908
 2018-Oct-04 07:05     23 13 37.631016 +12 24 18.68784
 2018-Oct-04 07:06     23 13 37.284330 +12 24 21.93625
 2018-Oct-04 07:07     23 13 36.937601 +12 24 25.18433
 2018-Oct-04 07:08     23 13 36.590830 +12 24 28.43207
 2018-Oct-04 07:09     23 13 36.244017 +12 24 31.67947
 2018-Oct-04 07:10     23 13 35.897162 +12 24 34.92653
 2018-Oct-04 07:11     23 13 35.550266 +12 24 38.17325
 2018-Oct-04 07:12     23 13 35.203329 +12 24 41.41963
 2018-Oct-04 07:13     23 13 34.856352 +12 24 44.66566
 2018-Oct-04 07:14     23 13 34.509336 +12 24 47.91135
 2018-Oct-04 07:15     23 13 34.162279 +12 24 51.15670
 2018-Oct-04 07:16     23 13 33.815184 +12 24 54.40171
 2018-Oct-04 07:17     23 13 33.468050 +12 24 57.64637
 2018-Oct-04 07:18     23 13 33.120878 +12 25 00.89068
 2018-Oct-04 07:19     23 13 32.773668 +12 25 04.13465
 2018-Oct-04 07:20     23 13 32.426421 +12 25 07.37827
 2018-Oct-04 07:21     23 13 32.079137 +12 25 10.62154
 2018-Oct-04 07:22     23 13 31.731816 +12 25 13.86447
 2018-Oct-04 07:23     23 13 31.384460 +12 25 17.10704
 2018-Oct-04 07:24     23 13 31.037067 +12 25 20.34927
 2018-Oct-04 07:25     23 13 30.689640 +12 25 23.59115
 2018-Oct-04 07:26     23 13 30.342178 +12 25 26.83268
 2018-Oct-04 07:27     23 13 29.994681 +12 25 30.07386
 2018-Oct-04 07:28     23 13 29.647150 +12 25 33.31468
 2018-Oct-04 07:29     23 13 29.299586 +12 25 36.55516
 2018-Oct-04 07:30     23 13 28.951989 +12 25 39.79528
 2018-Oct-04 07:31     23 13 28.604360 +12 25 43.03505
 2018-Oct-04 07:32     23 13 28.256698 +12 25 46.27446
 2018-Oct-04 07:33     23 13 27.909004 +12 25 49.51352
 2018-Oct-04 07:34     23 13 27.561279 +12 25 52.75223
 2018-Oct-04 07:35     23 13 27.213523 +12 25 55.99058
 2018-Oct-04 07:36     23 13 26.865737 +12 25 59.22858
 2018-Oct-04 07:37     23 13 26.517920 +12 26 02.46622
 2018-Oct-04 07:38     23 13 26.170074 +12 26 05.70350
 2018-Oct-04 07:39     23 13 25.822199 +12 26 08.94043
 2018-Oct-04 07:40     23 13 25.474295 +12 26 12.17700
 2018-Oct-04 07:41     23 13 25.126363 +12 26 15.41321
 2018-Oct-04 07:42     23 13 24.778403 +12 26 18.64906
 2018-Oct-04 07:43     23 13 24.430416 +12 26 21.88455
 2018-Oct-04 07:44     23 13 24.082401 +12 26 25.11969
 2018-Oct-04 07:45     23 13 23.734360 +12 26 28.35446
 2018-Oct-04 07:46     23 13 23.386293 +12 26 31.58888
 2018-Oct-04 07:47     23 13 23.038201 +12 26 34.82293
 2018-Oct-04 07:48     23 13 22.690083 +12 26 38.05662
 2018-Oct-04 07:49     23 13 22.341940 +12 26 41.28995
 2018-Oct-04 07:50     23 13 21.993773 +12 26 44.52292
 2018-Oct-04 07:51     23 13 21.645583 +12 26 47.75552
 2018-Oct-04 07:52     23 13 21.297368 +12 26 50.98777
 2018-Oct-04 07:53     23 13 20.949131 +12 26 54.21964
 2018-Oct-04 07:54     23 13 20.600872 +12 26 57.45116
 2018-Oct-04 07:55     23 13 20.252590 +12 27 00.68231
 2018-Oct-04 07:56     23 13 19.904286 +12 27 03.91310
 2018-Oct-04 07:57     23 13 19.555962 +12 27 07.14352
 2018-Oct-04 07:58     23 13 19.207616 +12 27 10.37358
 2018-Oct-04 07:59     23 13 18.859250 +12 27 13.60327
 2018-Oct-04 08:00     23 13 18.510865 +12 27 16.83259
 2018-Oct-04 08:01     23 13 18.162460 +12 27 20.06155
 2018-Oct-04 08:02     23 13 17.814036 +12 27 23.29014
 2018-Oct-04 08:03     23 13 17.465593 +12 27 26.51837
 2018-Oct-04 08:04     23 13 17.117133 +12 27 29.74622
 2018-Oct-04 08:05     23 13 16.768654 +12 27 32.97371
 2018-Oct-04 08:06     23 13 16.420159 +12 27 36.20083
 2018-Oct-04 08:07     23 13 16.071647 +12 27 39.42759
 2018-Oct-04 08:08     23 13 15.723118 +12 27 42.65397
 2018-Oct-04 08:09     23 13 15.374574 +12 27 45.87999
 2018-Oct-04 08:10     23 13 15.026015 +12 27 49.10563
 2018-Oct-04 08:11     23 13 14.677440 +12 27 52.33091
 2018-Oct-04 08:12     23 13 14.328851 +12 27 55.55582
 2018-Oct-04 08:13     23 13 13.980248 +12 27 58.78035
 2018-Oct-04 08:14     23 13 13.631631 +12 28 02.00452
 2018-Oct-04 08:15     23 13 13.283002 +12 28 05.22831
 2018-Oct-04 08:16     23 13 12.934359 +12 28 08.45174
 2018-Oct-04 08:17     23 13 12.585705 +12 28 11.67479
 2018-Oct-04 08:18     23 13 12.237038 +12 28 14.89747
 2018-Oct-04 08:19     23 13 11.888361 +12 28 18.11978
 2018-Oct-04 08:20     23 13 11.539672 +12 28 21.34172
 2018-Oct-04 08:21     23 13 11.190973 +12 28 24.56328
 2018-Oct-04 08:22     23 13 10.842264 +12 28 27.78447
